ONEWEB-0685             
1 54679U 22166AP  25110.10102451  .00000103  00000+0  21907-3 0  9996
2 54679  87.9277 328.3624 0002040  80.2911 279.8453 13.21825366115527
ONEWEB-0712             
1 54680U 22166AQ  25110.51691106 -.00000284  00000+0 -77710-3 0  9998
2 54680  87.9027 313.0222 0001833  69.5901 290.5426 13.16593554116442
ONEWEB-0714             
1 54681U 22166AR  25110.10731657  .00000021  00000+0  18230-4 0  9990
2 54681  87.9281 328.3515 0002035  82.3182 277.8183 13.21823905115649
ONEWEB-0532             
1 55140U 23004A   25110.90419056  .00000073  00000+0  15525-3 0  9997
2 55140  87.9018  89.9533 0002296  97.0923 263.0470 13.17649646111974
ONEWEB-0533             
1 55141U 23004B   25110.87483415  .00000338  00000+0  90440-3 0  9997
2 55141  87.8854  74.6761 0002159  80.7758 279.3615 13.12445867112661
ONEWEB-0541             
1 55142U 23004C   25110.95596145  .00000273  00000+0  73479-3 0  9993
2 55142  87.8794 105.2147 0001974  88.4347 271.7007 13.11420726110606
ONEWEB-0543             
1 55143U 23004D   25110.83567299  .00000069  00000+0  14319-3 0  9990
2 55143  87.9120  59.4770 0001971  73.6811 286.4538 13.18686629114038
ONEWEB-0544             
1 55144U 23004E   25110.82935098  .00000029  00000+0  41219-4 0  9992
2 55144  87.9121  59.4670 0001821  80.7645 279.3693 13.18686735114038
